ONEWEB-0032             
1 45141U 20008L   24052.50257321  .00000119  00000+0  30603-3 0  9998
2 45141  87.8928 204.4998 0001655  96.6613 263.4702 13.10369952197418
ONEWEB-0033             
1 45142U 20008M   24052.47658668  .00000526  00000+0  14699-2 0  9992
2 45142  87.8936 204.5128 0001359  90.9930 269.1353 13.10375488197320
ONEWEB-0035             
1 45143U 20008N   24052.43271349 -.00000051  00000+0 -18199-3 0  9991
2 45143  87.8935 204.4972 0001510  95.0912 265.0388 13.10370103197042
ONEWEB-0036             
1 45144U 20008P   24052.49932624  .00000264  00000+0  72071-3 0  9991
2 45144  87.8933 204.4456 0001704 103.9985 256.1332 13.10369072197483
ONEWEB-0038             
1 45145U 20008Q   24052.64337869 -.00000351  00000+0 -10269-2 0  9998
2 45145  87.9015 189.3457 0002349  90.9712 269.1685 13.11418584199376
ONEWEB-0039             
1 45146U 20008R   24052.78526746  .00000582  00000+0  16301-2 0  9995
2 45146  87.8939 204.4043 0002047 107.5924 252.5427 13.10374580198090
ONEWEB-0040             
1 45147U 20008S   24052.47334014  .00000384  00000+0  10642-2 0  9999
2 45147  87.8946 204.4601 0001674  99.0760 261.0556 13.10375450196977
ONEWEB-0041             
1 45148U 20008T   24052.59185041  .00000095  00000+0  13057-3 0  9990
2 45148  87.9472 179.8698 0018999 135.6739 224.5936 13.48443983203956
